[{"OBJECT_NAME":"TRANSPORTER-10 OBJECT AD","OBJECT_ID":"2024-043AD","EPOCH":"2026-03-09T20:38:52.416960","MEAN_MOTION":15.34189901,"ECCENTRICITY":0.00089841,"INCLINATION":97.547,"RA_OF_ASC_NODE":207.3753,"ARG_OF_PERICENTER":221.4908,"MEAN_ANOMALY":138.5653,"EPHEMERIS_TYPE":0,"CLASSIFICATION_TYPE":"U","NORAD_CAT_ID":59125,"ELEMENT_SET_NO":999,"REV_AT_EPOCH":11202,"BSTAR":0.00036310552,"MEAN_MOTION_DOT":0.00011954,"MEAN_MOTION_DDOT":0},{"OBJECT_NAME":"ELECTRON KICK STAGE R\/B","OBJECT_ID":"2025-267B","EPOCH":"2026-03-09T22:44:49.176096","MEAN_MOTION":15.38247043,"ECCENTRICITY":0.00141763,"INCLINATION":42.0167,"RA_OF_ASC_NODE":270.4493,"ARG_OF_PERICENTER":291.2023,"MEAN_ANOMALY":68.7302,"EPHEMERIS_TYPE":0,"CLASSIFICATION_TYPE":"U","NORAD_CAT_ID":66555,"ELEMENT_SET_NO":999,"REV_AT_EPOCH":1681,"BSTAR":0.00086858466,"MEAN_MOTION_DOT":0.00033474,"MEAN_MOTION_DDOT":0}]
